*******************************************************************************
 Revised: Dec 04, 2019            Carme  / (Jupiter)                        511

 SATELLITE PHYSICAL PROPERTIES:
  Radius (km)             = 15              Density (g cm^-3)   =              
  Mass (10^20 kg )        =                 Geometric Albedo    =  
                                            V(1,0)              = +11.3 

 SATELLITE ORBITAL DATA:
  Semi-major axis, a (km) = 22600 (10^3)    Orbital period      = 692 d (retro)
  Eccentricity, e         =   0.207         Rotational period   = 
  Inclination, i  (deg)   =  163            Local invar ref. pln= Sun
*******************************************************************************
 
 
*******************************************************************************
Ephemeris / WWW_USER Wed Jun 17 12:35:17 2020 Pasadena, USA      / Horizons
*******************************************************************************
Target body name: Carme (511)                     {source: jup343_merged}
Center body name: Solar System Barycenter (0)     {source: DE431mx}
Center-site name: BODY CENTER
*******************************************************************************
Start time      : A.D. 2000-Jun-05 00:00:00.0000 TDB
Stop  time      : A.D. 2040-May-26 00:00:00.0000 TDB
Step-size       : 14400 minutes
*******************************************************************************
Center geodetic : 0.00000000,0.00000000,0.0000000 {E-lon(deg),Lat(deg),Alt(km)}
Center cylindric: 0.00000000,0.00000000,0.0000000 {E-lon(deg),Dxy(km),Dz(km)}
Center radii    : (undefined)                                                  
Output units    : AU-D
Output type     : GEOMETRIC cartesian states
Output format   : 3 (position, velocity, LT, range, range-rate)
Reference frame : Ecliptic of J2000.0
*******************************************************************************
JDTDB
   X     Y     Z
   VX    VY    VZ
   LT    RG    RR
*******************************************************************************
$$SOE
2454820.500000000 = A.D. 2008-Dec-20 00:00:00.0000 TDB 
 X = 2.758956548018627E+00 Y =-4.314718491477048E+00 Z =-1.830252663709392E-02
 VX= 7.346792582941048E-03 VY= 2.990434015865764E-03 VZ=-3.520196618678084E-04
 LT= 2.957887147908366E-02 RG= 5.121422837164506E+00 RR= 1.439647465461403E-03
2454830.500000000 = A.D. 2008-Dec-30 00:00:00.0000 TDB 
 X = 2.831323526345213E+00 Y =-4.284724847485998E+00 Z =-2.197992783980605E-02
 VX= 7.125796699113379E-03 VY= 3.011861376990583E-03 VZ=-3.826613234614106E-04
 LT= 2.966151423875827E-02 RG= 5.135731987431552E+00 RR= 1.417295420607577E-03
2454840.500000000 = A.D. 2009-Jan-09 00:00:00.0000 TDB 
 X = 2.901462637197053E+00 Y =-4.254411861853316E+00 Z =-2.593962507675917E-02
 VX= 6.901826174083112E-03 VY= 3.054091191404038E-03 VZ=-4.084707029563633E-04
 LT= 2.974205693428285E-02 RG= 5.149677522862747E+00 RR= 1.367585548078018E-03
2454850.500000000 = A.D. 2009-Jan-19 00:00:00.0000 TDB 
 X = 2.969361276445054E+00 Y =-4.223578640426299E+00 Z =-3.013333229181626E-02
 VX= 6.678202020075132E-03 VY= 3.115624932497553E-03 VZ=-4.294817555350330E-04
 LT= 2.981903578914397E-02 RG= 5.163005998411360E+00 RR= 1.294565467621254E-03
2454860.500000000 = A.D. 2009-Jan-29 00:00:00.0000 TDB 
 X = 3.035036836097863E+00 Y =-4.192041115904827E+00 Z =-3.451382446320572E-02
 VX= 6.457605192998032E-03 VY= 3.194627474431843E-03 VZ=-4.458652277971049E-04
 LT= 2.989122205629263E-02 RG= 5.175504663120939E+00 RR= 1.202288246294916E-03
2454870.500000000 = A.D. 2009-Feb-08 00:00:00.0000 TDB 
 X = 3.098530456670176E+00 Y =-4.159634535047459E+00 Z =-3.903609053980228E-02
 VX= 6.242113323327736E-03 VY= 3.289095497271970E-03 VZ=-4.578867728136012E-04
 LT= 2.995761652048796E-02 RG= 5.187000508235642E+00 RR= 1.094624364756026E-03
2454880.500000000 = A.D. 2009-Feb-18 00:00:00.0000 TDB 
 X = 3.159901297331593E+00 Y =-4.126214480321681E+00 Z =-4.365810289738525E-02
 VX= 6.033264377236712E-03 VY= 3.396982794101182E-03 VZ=-4.658722850652172E-04
 LT= 3.001743529073193E-02 RG= 5.197357807236558E+00 RR= 9.751453770322668E-04
2454890.500000000 = A.D. 2009-Feb-28 00:00:00.0000 TDB 
 X = 3.219221505492261E+00 Y =-4.091656830130921E+00 Z =-4.834127808823876E-02
 VX= 5.832130755042704E-03 VY= 3.516288359365876E-03 VZ=-4.701807545518875E-04
 LT= 3.007009051262948E-02 RG= 5.206474776290391E+00 RR= 8.470615522537592E-04
2454900.500000000 = A.D. 2009-Mar-10 00:00:00.0000 TDB 
 X = 3.276571937883937E+00 Y =-4.055856992213493E+00 Z =-5.305070015865856E-02
 VX= 5.639394099857004E-03 VY= 3.645114982995821E-03 VZ=-4.711837802839246E-04
 LT= 3.011516865294557E-02 RG= 5.214279814337058E+00 RR= 7.131976274606982E-04
2454910.500000000 = A.D. 2009-Mar-20 00:00:00.0000 TDB 
 X = 3.332038609386917E+00 Y =-4.018728668625449E+00 Z =-5.775516787833611E-02
 VX= 5.455415489708101E-03 VY= 3.781705547752049E-03 VZ=-4.692506179172344E-04
 LT= 3.015240817433956E-02 RG= 5.220727637589786E+00 RR= 5.759940755129789E-04
2454920.500000000 = A.D. 2009-Mar-30 00:00:00.0000 TDB 
 X = 3.385709808552582E+00 Y =-3.980202343441433E+00 Z =-6.242711533970242E-02
 VX= 5.280298426951855E-03 VY= 3.924463076986634E-03 VZ=-4.647376239888989E-04
 LT= 3.018167778360929E-02 RG= 5.225795513335312E+00 RR= 4.375244427121228E-04
2454930.500000000 = A.D. 2009-Apr-09 00:00:00.0000 TDB 
 X = 3.437673803797864E+00 Y =-3.940223630196872E+00 Z =-6.704244462562421E-02
 VX= 5.113943949901218E-03 VY= 4.071959331965217E-03 VZ=-4.579810785894938E-04
 LT= 3.020295597832788E-02 RG= 5.229479718543832E+00 RR= 2.995221370115668E-04
2454940.500000000 = A.D. 2009-Apr-19 00:00:00.0000 TDB 
 X = 3.488017062318687E+00 Y =-3.898751575673758E+00 Z =-7.158030012716378E-02
 VX= 4.956098098795106E-03 VY= 4.222935441918005E-03 VZ=-4.492925786117223E-04
 LT= 3.021631230449221E-02 RG= 5.231792294731433E+00 RR= 1.634122634147839E-04
2454950.500000000 = A.D. 2009-Apr-29 00:00:00.0000 TDB 
 X = 3.536822908306317E+00 Y =-3.855756987461726E+00 Z =-7.602280705697248E-02
 VX= 4.806392382178399E-03 VY= 4.376296919023123E-03 VZ=-4.389563852432334E-04
 LT= 3.022189053204188E-02 RG= 5.232758134891494E+00 RR= 3.034574718633844E-05
2454960.500000000 = A.D. 2009-May-09 00:00:00.0000 TDB 
 X = 3.584170552924065E+00 Y =-3.811220831853311E+00 Z =-8.035479126085239E-02
 VX= 4.664377850066634E-03 VY= 4.531104820966044E-03 VZ=-4.272282695440814E-04
 LT= 3.021989381684675E-02 RG= 5.232412414372477E+00 RR=-9.876620337059082E-05
2454970.500000000 = A.D. 2009-May-19 00:00:00.0000 TDB 
 X = 3.630134435292792E+00 Y =-3.765132733285462E+00 Z =-8.456349325358432E-02
 VX= 4.529553339507405E-03 VY= 4.686564427991682E-03 VZ=-4.143354662829005E-04
 LT= 3.021057182670262E-02 RG= 5.230798361813178E+00 RR=-2.232186838547864E-04
2454980.500000000 = A.D. 2009-May-29 00:00:00.0000 TDB 
 X = 3.674783820181783E+00 Y =-3.717489595060556E+00 Z =-8.863828616572482E-02
 VX= 4.401388616875912E-03 VY= 4.842012455222019E-03 VZ=-4.004774506310925E-04
 LT= 3.019420974786803E-02 RG= 5.227965355683577E+00 RR=-3.424815371041263E-04
2454990.500000000 = A.D. 2009-Jun-08 00:00:00.0000 TDB 
 X = 3.718182604208731E+00 Y =-3.668294352257011E+00 Z =-9.257040458283151E-02
 VX= 4.279343036116965E-03 VY= 4.996903537848983E-03 VZ=-3.858273081723781E-04
 LT= 3.017111904846382E-02 RG= 5.223967325017044E+00 RR=-4.561701584357118E-04
2455000.500000000 = A.D. 2009-Jun-18 00:00:00.0000 TDB 
 X = 3.760389288376679E+00 Y =-3.617554861284581E+00 Z =-9.635268928913004E-02
 VX= 4.162880251958761E-03 VY= 5.150796527321063E-03 VZ=-3.705335081800793E-04
 LT= 3.014162985251364E-02 RG= 5.218861429016393E+00 RR=-5.640189625052756E-04
2455010.500000000 = A.D. 2009-Jun-28 00:00:00.0000 TDB 
 X = 3.801457080010100E+00 Y =-3.565282925093550E+00 Z =-9.997935109477295E-02
 VX= 4.051479503324288E-03 VY= 5.303341086532936E-03 VZ=-3.547219341910019E-04
 LT= 3.010608476284700E-02 RG= 5.212706987522688E+00 RR=-6.658577048055164E-04
2455020.500000000 = A.D. 2009-Jul-08 00:00:00.0000 TDB 
 X = 3.841434092510049E+00 Y =-3.511493449216178E+00 Z =-1.034457555553950E-01
 VX= 3.944643963943523E-03 VY= 5.454264968189857E-03 VZ=-3.384980193712107E-04
 LT= 3.006483396724850E-02 RG= 5.205564633671266E+00 RR=-7.615907198941982E-04
2455030.500000000 = A.D. 2009-Jul-18 00:00:00.0000 TDB 
 X = 3.880363616443459E+00 Y =-3.456203720842390E+00 Z =-1.067482292938061E-01
 VX= 3.841906706141317E-03 VY= 5.603362183320248E-03 VZ=-3.219489028473160E-04
 LT= 3.001823146440637E-02 RG= 5.197495660434966E+00 RR=-8.511789216704815E-04
2455040.500000000 = A.D. 2009-Jul-28 00:00:00.0000 TDB 
 X = 3.918284440137945E+00 Y =-3.399432801347878E+00 Z =-1.098838877022774E-01
 VX= 3.742834726719674E-03 VY= 5.750482173859818E-03 VZ=-3.051455425030800E-04
 LT= 2.996663225417343E-02 RG= 5.188561534132901E+00 RR=-9.346243738741381E-04
2455050.500000000 = A.D. 2009-Aug-07 00:00:00.0000 TDB 
 X = 3.955231202289184E+00 Y =-3.341201021748551E+00 Z =-1.128504832740376E-01
 VX= 3.647031401612661E-03 VY= 5.895520055915856E-03 VZ=-2.881447193364001E-04
 LT= 2.991039034876882E-02 RG= 5.178823550080722E+00 RR=-1.011957236555514E-03
2455060.500000000 = A.D. 2009-Aug-17 00:00:00.0000 TDB 
 X = 3.991234762845603E+00 Y =-3.281529570049272E+00 Z =-1.156462733049353E-01
 VX= 3.554137740041840E-03 VY= 6.038407966176661E-03 VZ=-2.709909090113206E-04
 LT= 2.984985747459824E-02 RG= 5.168342607817740E+00 RR=-1.083224842687141E-03
2455070.500000000 = A.D. 2009-Aug-27 00:00:00.0000 TDB 
 X = 4.026322581820958E+00 Y =-3.220440159582264E+00 Z =-1.182699054134954E-01
 VX= 3.463832755018847E-03 VY= 6.179107508238465E-03 VZ=-2.537179775196919E-04
 LT= 2.978538234957461E-02 RG= 5.157179085978898E+00 RR=-1.148482654717963E-03
